start=new Date('2023-07-03T00:00:00.000Z').valueOf();
sats=[{"CLASSIFICATION_TYPE":"U","EPOCH":"2023-07-02T04:00:00.999936","PERIOD":"92.941","MEAN_MOTION":"15.49373202","SEMIMAJOR_AXIS":"6796.696","REF_FRAME":"TEME","NORAD_CAT_ID":"56524","OBJECT_TYPE":"PAYLOAD","ARG_OF_PERICENTER":"262.6948","MEAN_MOTION_DOT":"-0.00619622","BSTAR":"-0.01192000000000","ECCENTRICITY":"0.00012390","FILE":"3947346","CENTER_NAME":"EARTH","TIME_SYSTEM":"UTC","ELEMENT_SET_NO":"999","GP_ID":"234664494","COUNTRY_CODE":"US","TLE_LINE1":"1 56524U 23065X   23183.16667824 -.00619622  00000-0 -11920-1 0  9997","APOAPSIS":"419.403","INCLINATION":"42.9970","PERIAPSIS":"417.718","DECAY_DATE":null,"MEAN_MOTION_DDOT":"0.0000000000000","REV_AT_EPOCH":"812","MEAN_ANOMALY":"98.7783","RCS_SIZE":"LARGE","TLE_LINE2":"2 56524  42.9970 150.0354 0001239 262.6948  98.7783 15.49373202  8124","MEAN_ELEMENT_THEORY":"SGP4","EPHEMERIS_TYPE":"0","RA_OF_ASC_NODE":"150.0354","OBJECT_ID":"2023-065X","OBJECT_NAME":"STARLINK-6323","SITE":"AFETR","LAUNCH_DATE":"2023-05-14"},{"DECAY_DATE":null,"PERIAPSIS":"401.138","TLE_LINE1":"1 56525U 23065Y   23183.60906015  .00017638  00000-0  25997-3 0  9993","COUNTRY_CODE":"US","APOAPSIS":"402.635","INCLINATION":"42.9990","GP_ID":"234677909","ELEMENT_SET_NO":"999","TIME_SYSTEM":"UTC","LAUNCH_DATE":"2023-05-14","OBJECT_NAME":"STARLINK-6329","SITE":"AFETR","RA_OF_ASC_NODE":"147.3449","OBJECT_ID":"2023-065Y","MEAN_ELEMENT_THEORY":"SGP4","EPHEMERIS_TYPE":"0","TLE_LINE2":"2 56525  42.9990 147.3449 0001104 252.1595 107.9146 15.55092152  8196","RCS_SIZE":"LARGE","MEAN_ANOMALY":"107.9146","REV_AT_EPOCH":"819","MEAN_MOTION_DDOT":"0.0000000000000","OBJECT_TYPE":"PAYLOAD","NORAD_CAT_ID":"56525","REF_FRAME":"TEME","SEMIMAJOR_AXIS":"6780.022","MEAN_MOTION":"15.55092152","PERIOD":"92.599","EPOCH":"2023-07-02T14:37:02.796960","CLASSIFICATION_TYPE":"U","CENTER_NAME":"EARTH","FILE":"3947860","ECCENTRICITY":"0.00011040","BSTAR":"0.00025997000000","MEAN_MOTION_DOT":"0.00017638","ARG_OF_PERICENTER":"252.1595"},{"MEAN_ELEMENT_THEORY":"SGP4","EPHEMERIS_TYPE":"0","TLE_LINE2":"2 56526  42.9970 150.0312 0001269 264.4868  98.6580 15.49394821  8128","RCS_SIZE":"LARGE","MEAN_ANOMALY":"98.6580","REV_AT_EPOCH":"812","MEAN_MOTION_DDOT":"0.0000000000000","LAUNCH_DATE":"2023-05-14","OBJECT_NAME":"STARLINK-6317","SITE":"AFETR","RA_OF_ASC_NODE":"150.0312","OBJECT_ID":"2023-065Z","ELEMENT_SET_NO":"999","GP_ID":"234664482","TIME_SYSTEM":"UTC","DECAY_DATE":null,"PERIAPSIS":"417.635","APOAPSIS":"419.360","TLE_LINE1":"1 56526U 23065Z   23183.16667824 -.00647242  00000-0 -12486-1 0  9996","COUNTRY_CODE":"US","INCLINATION":"42.9970","BSTAR":"-0.01248600000000","MEAN_MOTION_DOT":"-0.00647242","ARG_OF_PERICENTER":"264.4868","CENTER_NAME":"EARTH","FILE":"3947346","ECCENTRICITY":"0.00012690","PERIOD":"92.940","CLASSIFICATION_TYPE":"U","EPOCH":"2023-07-02T04:00:00.999936","OBJECT_TYPE":"PAYLOAD","NORAD_CAT_ID":"56526","REF_FRAME":"TEME","SEMIMAJOR_AXIS":"6796.632","MEAN_MOTION":"15.49394821"},{"TIME_SYSTEM":"UTC","GP_ID":"234664675","ELEMENT_SET_NO":"999","TLE_LINE1":"1 56527U 23065AA  23183.16667824 -.00648636  00000-0 -12504-1 0  9996","COUNTRY_CODE":"US","APOAPSIS":"419.266","INCLINATION":"42.9971","PERIAPSIS":"417.581","DECAY_DATE":null,"REV_AT_EPOCH":"812","MEAN_MOTION_DDOT":"0.0000000000000","RCS_SIZE":"LARGE","MEAN_ANOMALY":"101.3785","TLE_LINE2":"2 56527  42.9971 150.0236 0001240 265.1119 101.3785 15.49420089  8126","EPHEMERIS_TYPE":"0","MEAN_ELEMENT_THEORY":"SGP4","RA_OF_ASC_NODE":"150.0236","OBJECT_ID":"2023-065AA","OBJECT_NAME":"STARLINK-6335","SITE":"AFETR","LAUNCH_DATE":"2023-05-14","EPOCH":"2023-07-02T04:00:00.999936","CLASSIFICATION_TYPE":"U","PERIOD":"92.938","SEMIMAJOR_AXIS":"6796.558","MEAN_MOTION":"15.49420089","REF_FRAME":"TEME","OBJECT_TYPE":"PAYLOAD","NORAD_CAT_ID":"56527","ARG_OF_PERICENTER":"265.1119","MEAN_MOTION_DOT":"-0.00648636","BSTAR":"-0.01250400000000","ECCENTRICITY":"0.00012400","FILE":"3947346","CENTER_NAME":"EARTH"},{"CENTER_NAME":"EARTH","FILE":"3947346","ECCENTRICITY":"0.00013000","BSTAR":"-0.01304900000000","ARG_OF_PERICENTER":"269.2619","MEAN_MOTION_DOT":"-0.00674563","NORAD_CAT_ID":"56528","OBJECT_TYPE":"PAYLOAD","MEAN_MOTION":"15.49416162","SEMIMAJOR_AXIS":"6796.570","REF_FRAME":"TEME","PERIOD":"92.938","CLASSIFICATION_TYPE":"U","EPOCH":"2023-07-02T04:00:00.999936","SITE":"AFETR","OBJECT_NAME":"STARLINK-6337","LAUNCH_DATE":"2023-05-14","OBJECT_ID":"2023-065AB","RA_OF_ASC_NODE":"150.0272","TLE_LINE2":"2 56528  42.9970 150.0272 0001300 269.2619  95.5546 15.49416162  8129","EPHEMERIS_TYPE":"0","MEAN_ELEMENT_THEORY":"SGP4","MEAN_MOTION_DDOT":"0.0000000000000","REV_AT_EPOCH":"812","RCS_SIZE":"LARGE","MEAN_ANOMALY":"95.5546","COUNTRY_CODE":"US","TLE_LINE1":"1 56528U 23065AB  23183.16667824 -.00674563  00000-0 -13049-1 0  9990","INCLINATION":"42.9970","APOAPSIS":"419.318","DECAY_DATE":null,"PERIAPSIS":"417.551","TIME_SYSTEM":"UTC","ELEMENT_SET_NO":"999","GP_ID":"234664483"},{"NORAD_CAT_ID":"56529","OBJECT_TYPE":"PAYLOAD","MEAN_MOTION":"15.71380654","SEMIMAJOR_AXIS":"6733.087","REF_FRAME":"TEME","PERIOD":"91.639","CLASSIFICATION_TYPE":"U","EPOCH":"2023-07-02T14:17:46.707936","CENTER_NAME":"EARTH","ECCENTRICITY":"0.00016740","FILE":"3947860","BSTAR":"0.00042068000000","ARG_OF_PERICENTER":"262.0258","MEAN_MOTION_DOT":"0.00055138","TLE_LINE1":"1 56529U 23065AC  23183.59567949  .00055138  00000-0  42068-3 0  9999","COUNTRY_CODE":"US","APOAPSIS":"356.079","INCLINATION":"42.9987","DECAY_DATE":null,"PERIAPSIS":"353.825","TIME_SYSTEM":"UTC","ELEMENT_SET_NO":"999","GP_ID":"234677407","OBJECT_NAME":"STARLINK-6307","SITE":"AFETR","LAUNCH_DATE":"2023-05-14","OBJECT_ID":"2023-065AC","RA_OF_ASC_NODE":"146.3393","TLE_LINE2":"2 56529  42.9987 146.3393 0001674 262.0258  98.0420 15.71380654  8191","EPHEMERIS_TYPE":"0","MEAN_ELEMENT_THEORY":"SGP4","MEAN_MOTION_DDOT":"0.0000000000000","REV_AT_EPOCH":"819","MEAN_ANOMALY":"98.0420","RCS_SIZE":"LARGE"},{"CENTER_NAME":"EARTH","ECCENTRICITY":"0.00013020","FILE":"3947861","BSTAR":"0.00010812000000","ARG_OF_PERICENTER":"263.7633","MEAN_MOTION_DOT":"0.00013760","NORAD_CAT_ID":"56530","OBJECT_TYPE":"PAYLOAD","MEAN_MOTION":"15.71373847","SEMIMAJOR_AXIS":"6733.107","REF_FRAME":"TEME","PERIOD":"91.640","EPOCH":"2023-07-02T14:18:13.849632","CLASSIFICATION_TYPE":"U","SITE":"AFETR","OBJECT_NAME":"STARLINK-6318","LAUNCH_DATE":"2023-05-14","OBJECT_ID":"2023-065AD","RA_OF_ASC_NODE":"146.3421","TLE_LINE2":"2 56530  42.9995 146.3421 0001302 263.7633  96.3086 15.71373847  8192","EPHEMERIS_TYPE":"0","MEAN_ELEMENT_THEORY":"SGP4","MEAN_MOTION_DDOT":"0.0000000000000","REV_AT_EPOCH":"819","MEAN_ANOMALY":"96.3086","RCS_SIZE":"LARGE","TLE_LINE1":"1 56530U 23065AD  23183.59599363  .00013760  00000-0  10812-3 0  9993","COUNTRY_CODE":"US","APOAPSIS":"355.848","INCLINATION":"42.9995","PERIAPSIS":"354.095","DECAY_DATE":null,"TIME_SYSTEM":"UTC","GP_ID":"234677418","ELEMENT_SET_NO":"999"},{"GP_ID":"234677923","ELEMENT_SET_NO":"999","TIME_SYSTEM":"UTC","PERIAPSIS":"354.028","DECAY_DATE":null,"TLE_LINE1":"1 56531U 23065AE  23183.59557238  .00017498  00000-0  13650-3 0  9994","COUNTRY_CODE":"US","APOAPSIS":"355.921","INCLINATION":"42.9989","RCS_SIZE":"LARGE","MEAN_ANOMALY":"97.0280","MEAN_MOTION_DDOT":"0.0000000000000","REV_AT_EPOCH":"819","MEAN_ELEMENT_THEORY":"SGP4","EPHEMERIS_TYPE":"0","TLE_LINE2":"2 56531  42.9989 146.3384 0001406 263.0428  97.0280 15.71372802  8198","RA_OF_ASC_NODE":"146.3384","OBJECT_ID":"2023-065AE","LAUNCH_DATE":"2023-05-14","SITE":"AFETR","OBJECT_NAME":"STARLINK-6280","CLASSIFICATION_TYPE":"U","EPOCH":"2023-07-02T14:17:37.453632","PERIOD":"91.640","REF_FRAME":"TEME","MEAN_MOTION":"15.71372802","SEMIMAJOR_AXIS":"6733.110","NORAD_CAT_ID":"56531","OBJECT_TYPE":"PAYLOAD","MEAN_MOTION_DOT":"0.00017498","ARG_OF_PERICENTER":"263.0428","BSTAR":"0.00013650000000","ECCENTRICITY":"0.00014060","FILE":"3947861","CENTER_NAME":"EARTH"},{"CENTER_NAME":"EARTH","FILE":"3947861","ECCENTRICITY":"0.00013550","BSTAR":"0.00045492000000","MEAN_MOTION_DOT":"0.00059703","ARG_OF_PERICENTER":"256.8948","OBJECT_TYPE":"PAYLOAD","NORAD_CAT_ID":"56532","REF_FRAME":"TEME","SEMIMAJOR_AXIS":"6733.077","MEAN_MOTION":"15.71384190","PERIOD":"91.639","EPOCH":"2023-07-02T14:18:04.940064","CLASSIFICATION_TYPE":"U","LAUNCH_DATE":"2023-05-14","SITE":"AFETR","OBJECT_NAME":"STARLINK-6319","RA_OF_ASC_NODE":"146.3423","OBJECT_ID":"2023-065AF","MEAN_ELEMENT_THEORY":"SGP4","EPHEMERIS_TYPE":"0","TLE_LINE2":"2 56532  42.9989 146.3423 0001355 256.8948 103.1769 15.71384190  8197","MEAN_ANOMALY":"103.1769","RCS_SIZE":"LARGE","REV_AT_EPOCH":"819","MEAN_MOTION_DDOT":"0.0000000000000","PERIAPSIS":"354.030","DECAY_DATE":null,"COUNTRY_CODE":"US","TLE_LINE1":"1 56532U 23065AF  23183.59589051  .00059703  00000-0  45492-3 0  9997","APOAPSIS":"355.854","INCLINATION":"42.9989","ELEMENT_SET_NO":"999","GP_ID":"234677914","TIME_SYSTEM":"UTC"},{"BSTAR":"0.00001401100000","MEAN_MOTION_DOT":"0.00001386","ARG_OF_PERICENTER":"252.8743","CENTER_NAME":"EARTH","FILE":"3947861","ECCENTRICITY":"0.00018330","PERIOD":"91.640","EPOCH":"2023-07-02T14:17:27.934080","CLASSIFICATION_TYPE":"U","NORAD_CAT_ID":"56533","OBJECT_TYPE":"PAYLOAD","REF_FRAME":"TEME","MEAN_MOTION":"15.71363712","SEMIMAJOR_AXIS":"6733.136","MEAN_ELEMENT_THEORY":"SGP4","EPHEMERIS_TYPE":"0","TLE_LINE2":"2 56533  43.0010 146.3390 0001833 252.8743 107.1924 15.71363712  8192","MEAN_ANOMALY":"107.1924","RCS_SIZE":"LARGE","MEAN_MOTION_DDOT":"0.0000000000000","REV_AT_EPOCH":"819","LAUNCH_DATE":"2023-05-14","SITE":"AFETR","OBJECT_NAME":"STARLINK-6310","RA_OF_ASC_NODE":"146.3390","OBJECT_ID":"2023-065AG","GP_ID":"234677423","ELEMENT_SET_NO":"999","TIME_SYSTEM":"UTC","DECAY_DATE":null,"PERIAPSIS":"353.766","TLE_LINE1":"1 56533U 23065AG  23183.59546220  .00001386  00000-0  14011-4 0  9997","COUNTRY_CODE":"US","INCLINATION":"43.0010","APOAPSIS":"356.235"}];
